[{"OBJECT_NAME":"STARLINK-4578","OBJECT_ID":"2022-125B","EPOCH":"2026-03-10T00:00:02.999808","MEAN_MOTION":15.62568456,"ECCENTRICITY":0.00020465,"INCLINATION":53.2173,"RA_OF_ASC_NODE":215.6942,"ARG_OF_PERICENTER":23.1029,"MEAN_ANOMALY":169.28,"EPHEMERIS_TYPE":0,"CLASSIFICATION_TYPE":"U","NORAD_CAT_ID":53965,"ELEMENT_SET_NO":999,"REV_AT_EPOCH":584,"BSTAR":0.010109163,"MEAN_MOTION_DOT":0.01005123,"MEAN_MOTION_DDOT":0},{"OBJECT_NAME":"STARLINK-36808","OBJECT_ID":"2026-035C","EPOCH":"2026-03-09T22:00:01.999584","MEAN_MOTION":15.87173242,"ECCENTRICITY":0.00011045,"INCLINATION":97.2736,"RA_OF_ASC_NODE":1.2571,"ARG_OF_PERICENTER":89.052,"MEAN_ANOMALY":314.4302,"EPHEMERIS_TYPE":0,"CLASSIFICATION_TYPE":"U","NORAD_CAT_ID":67881,"ELEMENT_SET_NO":999,"REV_AT_EPOCH":379,"BSTAR":-0.0051505443,"MEAN_MOTION_DOT":-0.01168249,"MEAN_MOTION_DDOT":0}]
